[{"OBJECT_NAME":"STARLINK-33839","OBJECT_ID":"2025-110T","EPOCH":"2026-03-09T03:52:11.678592","MEAN_MOTION":15.30198575,"ECCENTRICITY":0.00010831,"INCLINATION":53.1613,"RA_OF_ASC_NODE":29.0665,"ARG_OF_PERICENTER":85.5068,"MEAN_ANOMALY":274.6057,"EPHEMERIS_TYPE":0,"CLASSIFICATION_TYPE":"U","NORAD_CAT_ID":64113,"ELEMENT_SET_NO":999,"REV_AT_EPOCH":4580,"BSTAR":0.0010355119,"MEAN_MOTION_DOT":0.00030434,"MEAN_MOTION_DDOT":0},{"OBJECT_NAME":"COSMOS 2251 DEB","OBJECT_ID":"1993-036BTX","EPOCH":"2026-02-28T17:34:44.973408","MEAN_MOTION":15.25753352,"ECCENTRICITY":0.00216382,"INCLINATION":73.9681,"RA_OF_ASC_NODE":229.3494,"ARG_OF_PERICENTER":13.6287,"MEAN_ANOMALY":346.5492,"EPHEMERIS_TYPE":0,"CLASSIFICATION_TYPE":"U","NORAD_CAT_ID":38487,"ELEMENT_SET_NO":999,"REV_AT_EPOCH":67986,"BSTAR":0.0024802785,"MEAN_MOTION_DOT":0.00064261,"MEAN_MOTION_DDOT":0}]
